CCSDS_OMM_VERS = 2.0
CREATION_DATE  = 
ORIGINATOR     = 

OBJECT_NAME    = SL-3 R/B
OBJECT_ID      = 1982-079B
CENTER_NAME    = EARTH
REF_FRAME      = TEME
TIME_SYSTEM    = UTC
MEAN_ELEMENT_THEORY = SGP/SGP4

EPOCH          = 2026-01-30T12:46:55.013952
MEAN_MOTION    = 15.24255681
ECCENTRICITY   = .0024274
INCLINATION    = 81.1439
RA_OF_ASC_NODE = 238.1185
ARG_OF_PERICENTER = 296.7860
MEAN_ANOMALY   = 63.0889

EPHEMERIS_TYPE = 0
CLASSIFICATION_TYPE = U
NORAD_CAT_ID   = 13403
ELEMENT_SET_NO = 999
REV_AT_EPOCH   = 37188
BSTAR          = .2814E-3
MEAN_MOTION_DOT = .6949E-4
MEAN_MOTION_DDOT = 0

CCSDS_OMM_VERS = 2.0
CREATION_DATE  = 
ORIGINATOR     = 

OBJECT_NAME    = SL-14 R/B
OBJECT_ID      = 1982-092B
CENTER_NAME    = EARTH
REF_FRAME      = TEME
TIME_SYSTEM    = UTC
MEAN_ELEMENT_THEORY = SGP/SGP4

EPOCH          = 2026-01-30T11:32:20.355360
MEAN_MOTION    = 14.86620470
ECCENTRICITY   = .0021756
INCLINATION    = 82.5692
RA_OF_ASC_NODE = 177.1263
ARG_OF_PERICENTER = 69.5975
MEAN_ANOMALY   = 354.1722

EPHEMERIS_TYPE = 0
CLASSIFICATION_TYPE = U
NORAD_CAT_ID   = 13553
ELEMENT_SET_NO = 999
REV_AT_EPOCH   = 32325
BSTAR          = .88987E-4
MEAN_MOTION_DOT = .817E-5
MEAN_MOTION_DDOT = 0

CCSDS_OMM_VERS = 2.0
CREATION_DATE  = 
ORIGINATOR     = 

OBJECT_NAME    = SL-3 R/B
OBJECT_ID      = 1983-010B
CENTER_NAME    = EARTH
REF_FRAME      = TEME
TIME_SYSTEM    = UTC
MEAN_ELEMENT_THEORY = SGP/SGP4

EPOCH          = 2026-01-30T12:00:53.944704
MEAN_MOTION    = 15.45025942
ECCENTRICITY   = .0017193
INCLINATION    = 81.1016
RA_OF_ASC_NODE = 49.0245
ARG_OF_PERICENTER = 174.5243
MEAN_ANOMALY   = 185.6192

EPHEMERIS_TYPE = 0
CLASSIFICATION_TYPE = U
NORAD_CAT_ID   = 13819
ELEMENT_SET_NO = 999
REV_AT_EPOCH   = 35204
BSTAR          = .37106E-3
MEAN_MOTION_DOT = .17649E-3
MEAN_MOTION_DDOT = 0

CCSDS_OMM_VERS = 2.0
CREATION_DATE  = 
ORIGINATOR     = 

OBJECT_NAME    = SL-3 R/B
OBJECT_ID      = 1983-075B
CENTER_NAME    = EARTH
REF_FRAME      = TEME
TIME_SYSTEM    = UTC
MEAN_ELEMENT_THEORY = SGP/SGP4

EPOCH          = 2026-01-30T10:17:22.178688
MEAN_MOTION    = 15.37403878
ECCENTRICITY   = .0022514
INCLINATION    = 97.6119
RA_OF_ASC_NODE = 33.5953
ARG_OF_PERICENTER = 12.2363
MEAN_ANOMALY   = 347.9423

EPHEMERIS_TYPE = 0
CLASSIFICATION_TYPE = U
NORAD_CAT_ID   = 14208
ELEMENT_SET_NO = 999
REV_AT_EPOCH   = 32427
BSTAR          = .43532E-3
MEAN_MOTION_DOT = .16025E-3
MEAN_MOTION_DDOT = 0

CCSDS_OMM_VERS = 2.0
CREATION_DATE  = 
ORIGINATOR     = 

OBJECT_NAME    = COSMOS 1536
OBJECT_ID      = 1984-013A
CENTER_NAME    = EARTH
REF_FRAME      = TEME
TIME_SYSTEM    = UTC
MEAN_ELEMENT_THEORY = SGP/SGP4

EPOCH          = 2026-01-30T08:44:17.794176
MEAN_MOTION    = 15.23293505
ECCENTRICITY   = .0015435
INCLINATION    = 82.5477
RA_OF_ASC_NODE = 145.9206
ARG_OF_PERICENTER = 60.4926
MEAN_ANOMALY   = 299.7847

EPHEMERIS_TYPE = 0
CLASSIFICATION_TYPE = U
NORAD_CAT_ID   = 14699
ELEMENT_SET_NO = 999
REV_AT_EPOCH   = 26678
BSTAR          = .35913E-3
MEAN_MOTION_DOT = .8577E-4
MEAN_MOTION_DDOT = 0

CCSDS_OMM_VERS = 2.0
CREATION_DATE  = 
ORIGINATOR     = 

OBJECT_NAME    = SL-14 R/B
OBJECT_ID      = 1984-027B
CENTER_NAME    = EARTH
REF_FRAME      = TEME
TIME_SYSTEM    = UTC
MEAN_ELEMENT_THEORY = SGP/SGP4

EPOCH          = 2026-01-30T10:40:46.919136
MEAN_MOTION    = 14.85937819
ECCENTRICITY   = .0019512
INCLINATION    = 82.5414
RA_OF_ASC_NODE = 280.8876
ARG_OF_PERICENTER = 99.2371
MEAN_ANOMALY   = 261.1054

EPHEMERIS_TYPE = 0
CLASSIFICATION_TYPE = U
NORAD_CAT_ID   = 14820
ELEMENT_SET_NO = 999
REV_AT_EPOCH   = 24195
BSTAR          = .73142E-4
MEAN_MOTION_DOT = .665E-5
MEAN_MOTION_DDOT = 0

CCSDS_OMM_VERS = 2.0
CREATION_DATE  = 
ORIGINATOR     = 

OBJECT_NAME    = SL-8 R/B
OBJECT_ID      = 1985-006B
CENTER_NAME    = EARTH
REF_FRAME      = TEME
TIME_SYSTEM    = UTC
MEAN_ELEMENT_THEORY = SGP/SGP4

EPOCH          = 2026-01-30T07:55:50.841120
MEAN_MOTION    = 14.37762026
ECCENTRICITY   = .0019715
INCLINATION    = 74.0477
RA_OF_ASC_NODE = 331.7300
ARG_OF_PERICENTER = 256.5316
MEAN_ANOMALY   = 222.0007

EPHEMERIS_TYPE = 0
CLASSIFICATION_TYPE = U
NORAD_CAT_ID   = 15483
ELEMENT_SET_NO = 999
REV_AT_EPOCH   = 14851
BSTAR          = .14254E-3
MEAN_MOTION_DOT = .404E-5
MEAN_MOTION_DDOT = 0

CCSDS_OMM_VERS = 2.0
CREATION_DATE  = 
ORIGINATOR     = 

OBJECT_NAME    = SL-12 R/B(2)
OBJECT_ID      = 1985-042D
CENTER_NAME    = EARTH
REF_FRAME      = TEME
TIME_SYSTEM    = UTC
MEAN_ELEMENT_THEORY = SGP/SGP4

EPOCH          = 2026-01-30T11:55:29.260416
MEAN_MOTION    = 14.21970253
ECCENTRICITY   = .0035508
INCLINATION    = 71.1079
RA_OF_ASC_NODE = 168.4160
ARG_OF_PERICENTER = 188.8286
MEAN_ANOMALY   = 235.2475

EPHEMERIS_TYPE = 0
CLASSIFICATION_TYPE = U
NORAD_CAT_ID   = 15772
ELEMENT_SET_NO = 999
REV_AT_EPOCH   = 10896
BSTAR          = .12893E-3
MEAN_MOTION_DOT = .239E-5
MEAN_MOTION_DDOT = 0

CCSDS_OMM_VERS = 2.0
CREATION_DATE  = 
ORIGINATOR     = 

OBJECT_NAME    = SL-14 R/B
OBJECT_ID      = 1985-069B
CENTER_NAME    = EARTH
REF_FRAME      = TEME
TIME_SYSTEM    = UTC
MEAN_ELEMENT_THEORY = SGP/SGP4

EPOCH          = 2026-01-30T12:12:29.172672
MEAN_MOTION    = 14.86387264
ECCENTRICITY   = .0017799
INCLINATION    = 82.5241
RA_OF_ASC_NODE = 60.8453
ARG_OF_PERICENTER = 322.8746
MEAN_ANOMALY   = 37.1238

EPHEMERIS_TYPE = 0
CLASSIFICATION_TYPE = U
NORAD_CAT_ID   = 15945
ELEMENT_SET_NO = 999
REV_AT_EPOCH   = 16716
BSTAR          = .74268E-4
MEAN_MOTION_DOT = .681E-5
MEAN_MOTION_DDOT = 0

CCSDS_OMM_VERS = 2.0
CREATION_DATE  = 
ORIGINATOR     = 

OBJECT_NAME    = SL-16 R/B
OBJECT_ID      = 1985-097B
CENTER_NAME    = EARTH
REF_FRAME      = TEME
TIME_SYSTEM    = UTC
MEAN_ELEMENT_THEORY = SGP/SGP4

EPOCH          = 2026-01-30T11:52:19.836192
MEAN_MOTION    = 14.16592949
ECCENTRICITY   = .0009189
INCLINATION    = 71.0006
RA_OF_ASC_NODE = 220.9614
ARG_OF_PERICENTER = 304.6609
MEAN_ANOMALY   = 75.9688

EPHEMERIS_TYPE = 0
CLASSIFICATION_TYPE = U
NORAD_CAT_ID   = 16182
ELEMENT_SET_NO = 999
REV_AT_EPOCH   = 8182
BSTAR          = .16722E-3
MEAN_MOTION_DOT = .286E-5
MEAN_MOTION_DDOT = 0

CCSDS_OMM_VERS = 2.0
CREATION_DATE  = 
ORIGINATOR     = 

OBJECT_NAME    = SL-14 R/B
OBJECT_ID      = 1986-006B
CENTER_NAME    = EARTH
REF_FRAME      = TEME
TIME_SYSTEM    = UTC
MEAN_ELEMENT_THEORY = SGP/SGP4

EPOCH          = 2026-01-30T05:26:11.379840
MEAN_MOTION    = 14.86757417
ECCENTRICITY   = .0077703
INCLINATION    = 82.5281
RA_OF_ASC_NODE = 295.9366
ARG_OF_PERICENTER = 41.0849
MEAN_ANOMALY   = 319.6182

EPHEMERIS_TYPE = 0
CLASSIFICATION_TYPE = U
NORAD_CAT_ID   = 16496
ELEMENT_SET_NO = 999
REV_AT_EPOCH   = 14349
BSTAR          = .11617E-3
MEAN_MOTION_DOT = .1119E-4
MEAN_MOTION_DDOT = 0

CCSDS_OMM_VERS = 2.0
CREATION_DATE  = 
ORIGINATOR     = 

OBJECT_NAME    = COSMOS 1743
OBJECT_ID      = 1986-034A
CENTER_NAME    = EARTH
REF_FRAME      = TEME
TIME_SYSTEM    = UTC
MEAN_ELEMENT_THEORY = SGP/SGP4

EPOCH          = 2026-01-30T06:38:34.313856
MEAN_MOTION    = 15.55749720
ECCENTRICITY   = .0005403
INCLINATION    = 82.5351
RA_OF_ASC_NODE = 114.0532
ARG_OF_PERICENTER = 78.8355
MEAN_ANOMALY   = 281.3506

EPHEMERIS_TYPE = 0
CLASSIFICATION_TYPE = U
NORAD_CAT_ID   = 16719
ELEMENT_SET_NO = 999
REV_AT_EPOCH   = 17427
BSTAR          = .63928E-3
MEAN_MOTION_DOT = .44265E-3
MEAN_MOTION_DDOT = 0

