SL-3 R/B                
1 13403U 82079B   26030.53258118  .00006949  00000+0  28140-3 0  9996
2 13403  81.1439 238.1185 0024274 296.7860  63.0889 15.24255681371884
SL-14 R/B               
1 13553U 82092B   26030.48079115  .00000817  00000+0  88987-4 0  9993
2 13553  82.5692 177.1263 0021756  69.5975 354.1722 14.86620470323257
SL-3 R/B                
1 13819U 83010B   26030.50062436  .00017649  00000+0  37106-3 0  9997
2 13819  81.1016  49.0245 0017193 174.5243 185.6192 15.45025942352045
SL-3 R/B                
1 14208U 83075B   26030.42872892  .00016025  00000+0  43532-3 0  9994
2 14208  97.6119  33.5953 0022514  12.2363 347.9423 15.37403878324275
COSMOS 1536             
1 14699U 84013A   26030.36409484  .00008577  00000+0  35913-3 0  9994
2 14699  82.5477 145.9206 0015435  60.4926 299.7847 15.23293505266786
SL-14 R/B               
1 14820U 84027B   26030.44498749  .00000665  00000+0  73142-4 0  9993
2 14820  82.5414 280.8876 0019512  99.2371 261.1054 14.85937819241954
SL-8 R/B                
1 15483U 85006B   26030.33044955  .00000404  00000+0  14254-3 0  9990
2 15483  74.0477 331.7300 0019715 256.5316 222.0007 14.37762026148510
SL-12 R/B(2)            
1 15772U 85042D   26030.49686644  .00000239  00000+0  12893-3 0  9998
2 15772  71.1079 168.4160 0035508 188.8286 235.2475 14.21970253108963
SL-14 R/B               
1 15945U 85069B   26030.50867098  .00000681  00000+0  74268-4 0  9991
2 15945  82.5241  60.8453 0017799 322.8746  37.1238 14.86387264167163
SL-16 R/B               
1 16182U 85097B   26030.49467403  .00000286  00000+0  16722-3 0  9991
2 16182  71.0006 220.9614 0009189 304.6609  75.9688 14.16592949 81825
SL-14 R/B               
1 16496U 86006B   26030.22652060  .00001119  00000+0  11617-3 0  9990
2 16496  82.5281 295.9366 0077703  41.0849 319.6182 14.86757417143495
COSMOS 1743             
1 16719U 86034A   26030.27678604  .00044265  00000+0  63928-3 0  9997
2 16719  82.5351 114.0532 0005403  78.8355 281.3506 15.55749720174275
